H1 CPF 01  gfz 2021 03 04 01  5631 terrasarx 
H2 0702601  6201 31698    2021 03 04 00 59 42 2021 03 09 00 00 42   120 1 1  0 0 0
H9
10 0 59277   3582.000000  0    1805146.325   4292316.737  -5084487.816
10 0 59277   3702.000000  0    1726506.667   3566076.075  -5642787.009
10 0 59277   3822.000000  0    1604669.356   2779702.493  -6102461.839
10 0 59277   3942.000000  0    1440847.238   1947631.006  -6455571.025
10 0 59277   4062.000000  0    1237231.484   1085028.760  -6696027.047
10 0 59277   4182.000000  0     996963.594    207520.831  -6819691.702
10 0 59277   4302.000000  0     724086.956   -669088.696  -6824439.579
10 0 59277   4422.000000  0     423479.394  -1529095.400  -6710189.276
10 0 59277   4542.000000  0     100768.386  -2357167.566  -6478903.562
10 0 59277   4662.000000  0    -237770.736  -3138612.685  -6134561.387
10 0 59277   4782.000000  0    -585333.175  -3859635.721  -5683096.889
10 0 59277   4902.000000  0    -934716.123  -4507581.503  -5132306.838
10 0 59277   5022.000000  0   -1278462.674  -5071160.326  -4491728.037
10 0 59277   5142.000000  0   -1609016.134  -5540651.918  -3772483.176
10 0 59277   5262.000000  0   -1918881.251  -5908082.731  -2987096.683
10 0 59277   5382.000000  0   -2200788.858  -6167372.518  -2149283.248
10 0 59277   5502.000000  0   -2447860.521  -6314447.115  -1273711.504
10 0 59277   5622.000000  0   -2653769.044  -6347313.555   -375745.810
10 0 59277   5742.000000  0   -2812890.665  -6266093.597    528828.853
10 0 59277   5862.000000  0   -2920444.477  -6073014.260   1424092.019
10 0 59277   5982.000000  0   -2972615.549  -5772355.911   2294277.014
10 0 59277   6102.000000  0   -2966658.331  -5370358.354   3124057.636
10 0 59277   6222.000000  0   -2900977.443  -4875088.131   3898825.421
10 0 59277   6342.000000  0   -2775184.147  -4296270.786   4604951.764
10 0 59277   6462.000000  0   -2590128.130  -3645092.431   5230029.869
10 0 59277   6582.000000  0   -2347903.137  -2933975.083   5763092.387
10 0 59277   6702.000000  0   -2051825.831  -2176332.337   6194799.788
10 0 59277   6822.000000  0   -1706389.825  -1386311.943   6517599.203
10 0 59277   6942.000000  0   -1317195.262   -578527.453   6725851.583
10 0 59277   7062.000000  0    -890856.517    232214.645   6815922.405
10 0 59277   7182.000000  0    -434890.133   1031184.859   6786240.773
10 0 59277   7302.000000  0      42417.664   1803997.861   6637325.904
10 0 59277   7422.000000  0     532161.433   2536871.381   6371778.587
10 0 59277   7542.000000  0    1024982.043   3216871.778   5994238.076
10 0 59277   7662.000000  0    1511244.273   3832143.832   5511306.327
10 0 59277   7782.000000  0    1981224.157   4372121.465   4931438.618
10 0 59277   7902.000000  0    2425303.774   4827715.418   4264801.469
10 0 59277   8022.000000  0    2834168.420   5191472.336   3523098.196
10 0 59277   8142.000000  0    3199002.104   5457703.820   2719367.906
10 0 59277   8262.000000  0    3511679.568   5622585.064   1867755.420
10 0 59277   8382.000000  0    3764945.863   5684212.280    983256.497
10 0 59277   8502.000000  0    3952579.780   5642622.977     81447.918
10 0 59277   8622.000000  0    4069539.059   5499775.837   -821795.739
10 0 59277   8742.000000  0    4112081.769   5259491.683  -1710589.484
10 0 59277   8862.000000  0    4077861.932   4927357.915  -2569325.088
10 0 59277   8982.000000  0    3965995.863   4510598.133  -3382951.635
10 0 59277   9102.000000  0    3777097.832   4017910.311  -4137242.710
10 0 59277   9222.000000  0    3513285.948   3459279.376  -4819043.827
10 0 59277   9342.000000  0    3178158.642   2845769.112  -5416498.086
10 0 59277   9462.000000  0    2776741.266   2189297.578  -5919244.869
10 0 59277   9582.000000  0    2315406.082   1502402.388  -6318589.461
10 0 59277   9702.000000  0    1801766.893    798000.277  -6607641.486
10 0 59277   9822.000000  0    1244552.357     89146.820  -6781421.936
10 0 59277   9942.000000  0     653458.384   -611201.055  -6836941.553
10 0 59277  10062.000000  0      38980.739  -1290417.321  -6773245.704
10 0 59277  10182.000000  0    -587766.492  -1936427.891  -6591427.677
10 0 59277  10302.000000  0   -1215246.565  -2537919.663  -6294613.284
10 0 59277  10422.000000  0   -1831707.705  -3084536.188  -5887913.056
10 0 59277  10542.000000  0   -2425398.028  -3567054.685  -5378343.028
10 0 59277  10662.000000  0   -2984786.639  -3977543.948  -4774716.154
10 0 59277  10782.000000  0   -3498787.974  -4309500.222  -4087501.247
10 0 59277  10902.000000  0   -3956982.853  -4557956.389  -3328650.968
10 0 59277  11022.000000  0   -4349832.748  -4719563.132  -2511401.869
10 0 59277  11142.000000  0   -4668882.448  -4792639.206  -1650047.646
10 0 59277  11262.000000  0   -4906945.646  -4777189.117   -759689.647
10 0 59277  11382.000000  0   -5058268.471  -4674887.264    144030.944
10 0 59277  11502.000000  0   -5118666.676  -4489028.638   1045214.404
10 0 59277  11622.000000  0   -5085631.772  -4224445.635   1927991.607
10 0 59277  11742.000000  0   -4958402.747  -3887392.942   2776812.949
10 0 59277  11862.000000  0   -4738002.231  -3485404.225   3576730.312
10 0 59277  11982.000000  0   -4427236.598  -3027124.757   4313666.695
10 0 59277  12102.000000  0   -4030658.996  -2522123.230   4974667.974
10 0 59277  12222.000000  0   -3554497.699  -1980688.976   5548129.663
10 0 59277  12342.000000  0   -3006553.347  -1413620.518   6023997.800
10 0 59277  12462.000000  0   -2396065.590   -832008.132   6393942.256
10 0 59277  12582.000000  0   -1733551.128   -247014.179   6651497.310
10 0 59277  12702.000000  0   -1030617.732    330341.546   6792166.924
10 0 59277  12822.000000  0    -299759.854    889387.503   6813497.668
10 0 59277  12942.000000  0     445863.172   1419996.927   6715119.048
10 0 59277  13062.000000  0    1192663.442   1912771.201   6498749.773
10 0 59277  13182.000000  0    1926871.454   2359206.418   6168168.840
10 0 59277  13302.000000  0    2634789.080   2751840.342   5729153.845
10 0 59277  13422.000000  0    3303046.380   3084379.330   5189386.852
10 0 59277  13542.000000  0    3918857.640   3351802.356   4558325.366
10 0 59277  13662.000000  0    4470268.614   3550439.060   3847041.458
10 0 59277  13782.000000  0    4946395.931   3678022.119   3068033.619
10 0 59277  13902.000000  0    5337649.787   3733711.155   2235005.515
10 0 59277  14022.000000  0    5635932.320   3718085.880   1362622.806
10 0 59277  14142.000000  0    5834809.753   3633111.119    466249.560
10 0 59277  14262.000000  0    5929652.210   3482072.399   -438330.637
10 0 59277  14382.000000  0    5917737.234   3269484.130  -1335201.353
10 0 59277  14502.000000  0    5798314.975   3000972.876  -2208601.810
10 0 59277  14622.000000  0    5572632.929   2683139.613  -3043210.339
10 0 59277  14742.000000  0    5243921.518   2323404.211  -3824417.392
10 0 59277  14862.000000  0    4817341.212   1929835.812  -4538583.139
10 0 59277  14982.000000  0    4299890.112   1510973.273  -5173273.559
10 0 59277  15102.000000  0    3700278.702   1075641.609  -5717469.156
10 0 59277  15222.000000  0    3028774.768    632768.642  -6161747.270
10 0 59277  15342.000000  0    2297020.462    191204.775  -6498434.327
10 0 59277  15462.000000  0    1517827.471   -240449.740  -6721726.406
10 0 59277  15582.000000  0     704954.017   -654008.095  -6827780.222
10 0 59277  15702.000000  0    -127136.128  -1041848.315  -6814772.164
10 0 59277  15822.000000  0    -963525.099  -1397049.398  -6682924.681
10 0 59277  15942.000000  0   -1789101.624  -1713511.550  -6434503.778
10 0 59277  16062.000000  0   -2588828.305  -1986059.342  -6073784.161
10 0 59277  16182.000000  0   -3348009.417  -2210525.267  -5606982.960
10 0 59277  16302.000000  0   -4052558.285  -2383814.321  -5042164.664
10 0 59277  16422.000000  0   -4689260.954  -2503947.532  -4389113.406
10 0 59277  16542.000000  0   -5246028.423  -2570082.945  -3659174.023
10 0 59277  16662.000000  0   -5712133.888  -2582513.857  -2865064.032
10 0 59277  16782.000000  0   -6078429.218  -2542643.299  -2020657.508
10 0 59277  16902.000000  0   -6337534.650  -2452935.459  -1140744.786
10 0 59277  17022.000000  0   -6483997.164  -2316844.508   -240771.546
10 0 59277  17142.000000  0   -6514412.248  -2138722.213    663437.427
10 0 59277  17262.000000  0   -6427506.152  -1923706.223   1555964.386
10 0 59277  17382.000000  0   -6224174.539  -1677592.018   2421088.637
10 0 59277  17502.000000  0   -5907476.272  -1406691.966   3243572.094
10 0 59277  17622.000000  0   -5482585.019  -1117684.746   4008935.228
10 0 59277  17742.000000  0   -4956696.329   -817458.954   4703717.995
10 0 59277  17862.000000  0   -4338895.598   -512955.691   5315716.379
10 0 59277  17982.000000  0   -3639993.083   -211013.921   5834195.145
10 0 59277  18102.000000  0   -2872325.810     81778.948   6250073.333
10 0 59277  18222.000000  0   -2049531.733    359227.067   6556077.610
10 0 59277  18342.000000  0   -1186301.977    615653.104   6746863.312
10 0 59277  18462.000000  0    -298115.703    846011.991   6819101.813
10 0 59277  18582.000000  0     599037.549   1045988.562   6771534.232
10 0 59277  18702.000000  0    1488944.565   1212077.874   6604991.954
10 0 59277  18822.000000  0    2355460.478   1341647.036   6322382.954
10 0 59277  18942.000000  0    3182801.025   1432976.906   5928644.587
10 0 59277  19062.000000  0    3955832.289   1485283.507   5430662.743
10 0 59277  19182.000000  0    4660350.348   1498718.667   4837156.566
10 0 59277  19302.000000  0    5283347.777   1474350.743   4158533.600
10 0 59277  19422.000000  0    5813264.396   1414124.814   3406711.830
10 0 59277  19542.000000  0    6240210.773   1320803.425   2594910.278
10 0 59277  19662.000000  0    6556161.869   1197887.631   1737416.436
10 0 59277  19782.000000  0    6755117.002   1049522.338    849330.425
10 0 59277  19902.000000  0    6833219.551    880386.787    -53707.587
10 0 59277  20022.000000  0    6788835.229    695573.200   -955801.398
99
